{ "type": "FeatureCollection", "features": [{"type":"Feature","geometry":{"type":"MultiPolygon","coordinates":[[[[-87.69620447368311,41.94669597034935],[-87.69620249108301,41.946672344555765],[-87.69620081350457,41.94665236229515],[-87.69618841106336,41.94657265555721],[-87.69604612531195,41.94596698359317],[-87.69604483300512,41.94596148259734],[-87.6960001010645,41.94577106807885],[-87.6959057054452,41.94537620063178],[-87.69577757020222,41.94483656867611],[-87.69577581093162,41.94482916088174],[-87.69558466985595,41.94401037754302],[-87.69552785298352,41.94378067269694],[-87.69548115944465,41.94357901537205],[-87.69546930721094,41.9434713544681],[-87.69546826884407,41.94346192222479],[-87.69545170026329,41.94331142703468],[-87.69542825186058,41.943204244595485],[-87.69539841383107,41.94311116005787],[-87.69539566060391,41.943096408127474],[-87.69538113544391,41.943061047914796],[-87.6953570367288,41.942999038699],[-87.69534759724934,41.94297502841456],[-87.69533009322753,41.94293050066833],[-87.69531028047575,41.942876114059366],[-87.69529674187974,41.94282744700886],[-87.69527864253931,41.94276631472446],[-87.69527505785572,41.94276105847265],[-87.69515119068879,41.94257941321449],[-87.69510928136755,41.942517954982264],[-87.69506708444385,41.94244423081275],[-87.69502810157485,41.942383668442474],[-87.69499528703129,41.94234221298648],[-87.69494449328381,41.94224226021836],[-87.69490982287965,41.94218062427935],[-87.69487845334773,41.94213431953225],[-87.69484137416894,41.942074564475654],[-87.69480066910165,41.94201720303176],[-87.69477448264577,41.94197828189309],[-87.69472342774739,41.941904563246354],[-87.69469738669463,41.94185845194576],[-87.69467106365602,41.94181848743831],[-87.69463459264661,41.94176416829906],[-87.69461227430367,41.94173171681827],[-87.69459139081947,41.941699164375244],[-87.69453479857312,41.9416242615105],[-87.69450310326499,41.941573921356635],[-87.69445825535857,41.941511844205266],[-87.69435158767213,41.94138674548202],[-87.6943105655363,41.941339124588545],[-87.6942704482098,41.94128193098261],[-87.694239279413,41.94123771324188],[-87.69421711172497,41.941193957049144],[-87.69420699876639,41.94117623263616],[-87.69417589429801,41.94112171903661],[-87.69414616524742,41.94108428698523],[-87.69412129271284,41.94105744736231],[-87.69408237939604,41.941023174746626],[-87.69405049603826,41.940969512090916],[-87.69402289674342,41.94092495763259],[-87.69397482158028,41.94084392742943],[-87.6939466277385,41.94078888617253],[-87.69387038200665,41.94069469104278],[-87.69386478251567,41.940662881728805],[-87.69386083764257,41.94064662856752],[-87.69385383859681,41.940617788856635],[-87.69383242357289,41.94056863028232],[-87.69379258656306,41.94051292001132],[-87.69373230507928,41.9404505648274],[-87.69369465252504,41.94040060270747],[-87.69368325936112,41.940382015798534],[-87.6936698608892,41.94036185293882],[-87.6936560554518,41.94032739143338],[-87.693641455614,41.94028035596063],[-87.69363310804529,41.94025506323335],[-87.69360421214567,41.94022627976964],[-87.69352866049591,41.94013623250243],[-87.69346672516909,41.94009606925515],[-87.6934221696983,41.94004173167225],[-87.69337747624056,41.93998648846852],[-87.69331040169696,41.93993101064832],[-87.69323814195576,41.939883133297776],[-87.69319554655328,41.93985699055749],[-87.69313322417656,41.93982615421517],[-87.69305950798297,41.93977695144432],[-87.69300048039052,41.93972162815617],[-87.69292862935143,41.93965874164696],[-87.69286361840841,41.93960269886093],[-87.6928389081007,41.93957445984285],[-87.69279425386796,41.939522729724686],[-87.69272886462572,41.93948619585489],[-87.69266159993064,41.93945717105913],[-87.69256665951883,41.93942656924852],[-87.69252670298104,41.93941369027792],[-87.69247171937575,41.93939510664306],[-87.6924385998,41.93938081716826],[-87.69244422958366,41.939361830871206],[-87.69244896582178,41.939340315054004],[-87.69244347469,41.93931245782833],[-87.6924316157511,41.939296365714746],[-87.69239477608014,41.93927184659183],[-87.69237183191662,41.939254402413724],[-87.69235642252396,41.939237027305246],[-87.69234275907264,41.93921774153275],[-87.69231549252983,41.93920252404345],[-87.69226739601068,41.939193556497585],[-87.69223359328095,41.939177780301435],[-87.69218832482912,41.939154338562886],[-87.69212749146601,41.93911810439114],[-87.69207908850409,41.939084848586575],[-87.69204968007084,41.939070633746006],[-87.69202286515626,41.93906174444548],[-87.69201128875284,41.93905790649079],[-87.69198434092725,41.939043870138406],[-87.69195394802117,41.93903247591778],[-87.69193519500475,41.9390296548558],[-87.69191938338089,41.939012003740174],[-87.6919025150605,41.939000766989906],[-87.69186829401431,41.9389936612518],[-87.69181850321502,41.93897052362275],[-87.69178120640937,41.93895856948916],[-87.6917806544363,41.938958538494624],[-87.6917801048658,41.93895850841383],[-87.69175416968336,41.93894980223196],[-87.69171028006842,41.93893921125223],[-87.69166962987653,41.938924603969845],[-87.69163628670873,41.938900304017096],[-87.69162401991163,41.93889136358182],[-87.69158594418153,41.93886173240475],[-87.69155332064611,41.93883830707151],[-87.69152807015602,41.93881640399052],[-87.69150904400799,41.93880403150528],[-87.69148630601163,41.93879180212737],[-87.69147291456805,41.93877476770187],[-87.69147170068445,41.93876378406187],[-87.69145521079717,41.938740557832425],[-87.69144128901135,41.93871773039981],[-87.69142791217664,41.938699242013534],[-87.69141191961278,41.93869231997874],[-87.6913970295817,41.93868175325757],[-87.6913897151194,41.938663573362774],[-87.69138507431498,41.93865342137569],[-87.69137883174253,41.93864559319426],[-87.69132019025936,41.93858508437781],[-87.69126734156939,41.938518708045955],[-87.69122665630265,41.938467246197355],[-87.69119812203571,41.93842087344659],[-87.69111473955496,41.9383206826441],[-87.69105685562208,41.9382396512452],[-87.6910203995243,41.93816236172943],[-87.69099027965646,41.938098225495665],[-87.69096524449817,41.93804386020041],[-87.69092618428715,41.93796606180039],[-87.69089872982538,41.937911024810134],[-87.69088388877374,41.93787361937949],[-87.69087243030724,41.937854455606924],[-87.69086436824101,41.9378264470633],[-87.69080072370993,41.9376091827697],[-87.69078107166949,41.937542091641376],[-87.69071708130478,41.93739944583193],[-87.69041339066725,41.93690493867364],[-87.69036736887955,41.93686524638789],[-87.69032155004871,41.936831043648816],[-87.69028503520411,41.93680369861566],[-87.69023223312766,41.936769539560395],[-87.69019647868906,41.93673588742506],[-87.69014925739201,41.93669871286528],[-87.69011465099601,41.93667513825812],[-87.69007236103319,41.93664833701671],[-87.69002481753844,41.9366284776017],[-87.68998633469643,41.93661772358355],[-87.68993368779788,41.93660834512001],[-87.68991862729114,41.93660749274046],[-87.68985690150883,41.936605582944416],[-87.68983473179061,41.936603623816545],[-87.68981015620575,41.936601451326176],[-87.6897492647898,41.936589474125505],[-87.68968774377228,41.936578235237334],[-87.68958102656691,41.93656218723602],[-87.68952230726485,41.936557247390525],[-87.68947589238147,41.93654952246005],[-87.68944985305231,41.93655129774675],[-87.68943101380546,41.93654981998898],[-87.68941144875842,41.93653634572451],[-87.68937164293745,41.936532938899575],[-87.6893153249478,41.93652315602101],[-87.68924836679375,41.93651517891703],[-87.68915417552061,41.93650718583657],[-87.68902688497411,41.936497607826404],[-87.68897701220976,41.936497520620584],[-87.68892559077253,41.936498192685114],[-87.68891239140859,41.936498365294284],[-87.6889053302818,41.93649739561899],[-87.68887407301814,41.936493101155634],[-87.68885870947877,41.936482229833246],[-87.68882512205143,41.9364818216186],[-87.68877811589239,41.936485289625956],[-87.68874853603454,41.936473680337535],[-87.68870661235144,41.93646888928509],[-87.68866064241894,41.93646070105119],[-87.68862602308671,41.936460506665576],[-87.68859986991492,41.936462691672055],[-87.68856318792729,41.936455625148945],[-87.68852681866818,41.9364467218908],[-87.68848742098353,41.9364283067027],[-87.68846645028884,41.93641219000886],[-87.68844238450404,41.936396769890955],[-87.68835512344991,41.936336705616526],[-87.68821417735714,41.9362396879994],[-87.68814979854614,41.93619537380877],[-87.68808023997224,41.93616143741994],[-87.68804301866444,41.9361385173398],[-87.68799728092101,41.93611103781274],[-87.68798678840396,41.93610394093644],[-87.687984254736,41.935966783491175],[-87.68798238030108,41.9358639864514],[-87.68798175609446,41.93582974058178],[-87.68797966311813,41.93571489315575],[-87.68797718477741,41.93565680865243],[-87.6879767809532,41.93564734838523],[-87.68797074435732,41.93550589735934],[-87.68796408376951,41.93515317338399],[-87.68795711083565,41.93487508974313],[-87.68795271037678,41.934597075468616],[-87.687951888789,41.934546410007556],[-87.68795123271272,41.93450599846977],[-87.68794949142499,41.93439873199812],[-87.68794819966828,41.934319115481266],[-87.68794481902539,41.93415499095519],[-87.68794135169895,41.93398666858381],[-87.6879381450868,41.93383099825493],[-87.68793775104056,41.93381183874989],[-87.68793725251452,41.933787614283155],[-87.68793721919162,41.93378601600438],[-87.68793662675323,41.93375400402759],[-87.68793277073704,41.93354554260317],[-87.68792696276876,41.93327953980195],[-87.68792379999569,41.933079221270305],[-87.687923484208,41.93305923659698],[-87.6879219798842,41.932963991780774],[-87.6879204579541,41.932867623247986],[-87.68792044005467,41.93286652834201],[-87.68792025150493,41.93284899238959],[-87.68791950277601,41.93278153520488],[-87.68791877456604,41.93271598954249],[-87.68791849360231,41.93269063727599],[-87.68791771601687,41.93262125861576],[-87.6879172758733,41.93258299197206],[-87.68791721089217,41.932577238476334],[-87.68791490584066,41.932550655779984],[-87.68788269166514,41.93217912676441],[-87.68789205477434,41.93182530511926],[-87.68789281450752,41.93179658965096],[-87.68789005760965,41.93171113970374],[-87.68788402203377,41.93152406688129],[-87.6878702583856,41.931196299592266],[-87.68786807845416,41.93114439660926],[-87.6878596365296,41.9309027752294],[-87.68785484956463,41.930751642616755],[-87.68784960077706,41.93058592559893],[-87.68784447040065,41.93045211616917],[-87.68784061544405,41.93035157493609],[-87.68783720263987,41.93026254875472],[-87.68782993127257,41.93007286426998],[-87.68780676815045,41.92954172705545],[-87.68780116241862,41.929409996499324],[-87.68780027151864,41.929389059627795],[-87.68779979183743,41.92937780095655],[-87.68779787837966,41.92933284192899],[-87.68779690526438,41.92930989504964],[-87.68779466469768,41.92924105642654],[-87.68778974712039,41.92908998605727],[-87.6877870285761,41.92900649270933],[-87.6877845496437,41.928934989554435],[-87.68777838815603,41.92875722268222],[-87.68777806025392,41.92874777183334],[-87.68777674078727,41.92871194372634],[-87.68776815580773,41.92863834537255],[-87.68776699942593,41.928627000064274],[-87.68776599989127,41.92859399990369],[-87.68776599988072,41.92858299962254],[-87.68777205374418,41.928584651560044],[-87.68780091529999,41.92860255310805],[-87.68781634801482,41.92861126237051],[-87.68788199943766,41.92864899980658],[-87.68808199975332,41.92876399996357],[-87.68823100059045,41.928849000425416],[-87.68834800018791,41.928915999724225],[-87.6884890002592,41.92899399982651],[-87.6889119996978,41.92922900025796],[-87.68905299952382,41.92930799993488],[-87.69063199957118,41.93019300013683],[-87.69095499947821,41.93033199964044],[-87.69160299947326,41.93074899972359],[-87.69273800040216,41.93139299995442],[-87.692982999554,41.93153899978923],[-87.69371800007555,41.93197699976223],[-87.69396400450542,41.93212407989401],[-87.6939978488968,41.932123161841915],[-87.69402701739996,41.93212237080151],[-87.69409026787926,41.93212065579446],[-87.6941326668281,41.932119506225646],[-87.69418505555227,41.932118085429465],[-87.69421900727818,41.93211716430833],[-87.69428326601599,41.93211542149488],[-87.69430484358449,41.93211483662656],[-87.69433341628539,41.93211406199968],[-87.69441699504141,41.932113588061654],[-87.69474550415138,41.93211172333417],[-87.69478244259912,41.93211151371518],[-87.69482200366205,41.93211128895778],[-87.69488630772277,41.93211092356922],[-87.69495708932799,41.9321105221324],[-87.69503400121948,41.93211008540584],[-87.69517521354402,41.93210928395756],[-87.69526500819279,41.93210877372367],[-87.69534294742498,41.932108330794925],[-87.69538000163286,41.932108119826204],[-87.69540118028341,41.93210799980853],[-87.69542899806441,41.93210784194482],[-87.69544785314027,41.93210773511897],[-87.69550000394739,41.93210743871829],[-87.69551625209054,41.93210734621001],[-87.69561427389749,41.932106789570426],[-87.69568898641218,41.9321063644984],[-87.69575307703958,41.93210600014008],[-87.69578056684341,41.932105843971264],[-87.69582230557492,41.93210560665206],[-87.69588624306448,41.93210524316975],[-87.6959740071375,41.9321047445167],[-87.6961049279629,41.93210400003894],[-87.69613265289746,41.93210384238976],[-87.69619655301003,41.932103478527225],[-87.69632575194801,41.93210274405008],[-87.69636185598253,41.93210253829698],[-87.69640205249775,41.93210230931768],[-87.69642403515951,41.93210172539788],[-87.69649304287961,41.932099893348024],[-87.69651601449787,41.93209928338417],[-87.69662389800781,41.93209641810241],[-87.6967360004288,41.932096334732854],[-87.69704840996728,41.93209609919187],[-87.69718240859557,41.932096001675305],[-87.69739700008915,41.932095840814185],[-87.69761766609867,41.9320956753708],[-87.69766176120028,41.93209564220038],[-87.69786300154139,41.932095491182785],[-87.69791297703526,41.93209545354737],[-87.6979240238508,41.932095340916774],[-87.69809127313579,41.93209364098271],[-87.69823097549403,41.93209226471322],[-87.69825865217118,41.932091987439655],[-87.69830649185171,41.932091510161],[-87.69843738805855,41.932090203779964],[-87.69852651861335,41.932089297478456],[-87.69853899372912,41.932089234100786],[-87.69859999950353,41.932088926725996],[-87.69884620990653,41.93208768558104],[-87.69894662454082,41.93208717893362],[-87.69909100471376,41.93208645049386],[-87.69915200084118,41.93208614277245],[-87.69916266846934,41.932086089150985],[-87.69928090194819,41.93208516023453],[-87.69931850316726,41.932084864583295],[-87.69945875519682,41.932083741948375],[-87.69947448643488,41.932083612713896],[-87.69961958963377,41.93208243743399],[-87.6997308063543,41.932081569263744],[-87.6997659918677,41.93208133666374],[-87.6998269997956,41.93208093231313],[-87.6998717919959,41.93208063564129],[-87.70007314405935,41.93207930282912],[-87.70031800774103,41.93207768196334],[-87.70036619429433,41.93207736239681],[-87.70057774546952,41.93207592196393],[-87.70073394745357,41.93207486135972],[-87.70089051622388,41.93207377555329],[-87.70099081560889,41.93207309271869],[-87.70105300817652,41.93207262491503],[-87.70123415726304,41.932071263443156],[-87.70129869272847,41.93207077869343],[-87.70150922281111,41.93206919587332],[-87.70154299979062,41.932068986489476],[-87.70160199495527,41.932068620539056],[-87.70168736467038,41.9320680908396],[-87.70190417136975,41.93206667057192],[-87.70191041867345,41.932066628399504],[-87.70195327535484,41.93206636258721],[-87.70208856053515,41.932065521842944],[-87.70221301827816,41.93206370038356],[-87.70227702042818,41.932062763786234],[-87.70252169232434,41.932059181641215],[-87.70276701539146,41.93205558904585],[-87.70279181360193,41.93205522554562],[-87.70292566134158,41.93205513760337],[-87.70314035928641,41.93205505122278],[-87.70325991035486,41.93205499696322],[-87.7034460072421,41.93205490431403],[-87.70351661513978,41.93205486848481],[-87.70375219059422,41.93205217737],[-87.70399700779036,41.932049379769154],[-87.70409141498418,41.932048300895865],[-87.7041512246935,41.93204761758055],[-87.70432445556294,41.93204589452598],[-87.70443048333678,41.932044839419255],[-87.70464240887799,41.93204270659218],[-87.70468551604876,41.93204246904181],[-87.70473500186748,41.93204219707091],[-87.70487164616834,41.93204144421883],[-87.70498089600585,41.93204084290161],[-87.70498070219604,41.93202877196587],[-87.70497782105188,41.93184923593541],[-87.7049775026226,41.93183598037825],[-87.70497602107604,41.931774281394965],[-87.70497355200891,41.931675977534645],[-87.7049723987169,41.931629973165535],[-87.70497015435187,41.931540716187044],[-87.70496525037306,41.93137392320124],[-87.70495953743267,41.931207124882896],[-87.70495032374352,41.930932652666414],[-87.70495002285367,41.93092399881009],[-87.704945393375,41.93079091401275],[-87.70493806366228,41.930580998834714],[-87.70493758829656,41.93056739578707],[-87.70493667350081,41.93054119646182],[-87.70493587819622,41.93051080763572],[-87.7049320768858,41.930365458508504],[-87.70492722258031,41.930216591411224],[-87.70491795369607,41.929932288095024],[-87.70491710920741,41.92990199803318],[-87.70491376801813,41.92978212906469],[-87.70491100254259,41.929681976961795],[-87.70491005560062,41.92964836770605],[-87.70490467996612,41.929457546663706],[-87.7049038235084,41.92942774001329],[-87.70490237857008,41.929377430431884],[-87.70489677245546,41.929181105275866],[-87.70489545510158,41.92914383953302],[-87.70489354841678,41.929089597462735],[-87.70488887797195,41.92895702198629],[-87.7048873741002,41.92891431540124],[-87.70488701870487,41.92889401902059],[-87.70488262250194,41.92864260631081],[-87.70488236060365,41.92862764762295],[-87.70488179012857,41.92859499297519],[-87.70488120713301,41.92856164860262],[-87.7048792458114,41.9285218196804],[-87.70487692331344,41.928450983066064],[-87.70487535506405,41.928403167627536],[-87.70509095199786,41.9284023694385],[-87.70524863821026,41.92840173485756],[-87.70533989618038,41.92836421469528],[-87.70535520469488,41.928357920453095],[-87.70547435823359,41.92830893033024],[-87.70549357070762,41.92830103141303],[-87.70554522075986,41.92827291187531],[-87.70562178685594,41.92819351313254],[-87.70575161261465,41.92805888272955],[-87.7057057702414,41.92803056873224],[-87.70549665365375,41.92790140962197],[-87.70533997945236,41.92780464019285],[-87.70521781119889,41.927730257062386],[-87.7050955209759,41.92765580020689],[-87.70493800285067,41.927560010575185],[-87.70491433142163,41.92754561612291],[-87.70486490667359,41.92751508446524],[-87.70482943827652,41.927493174255936],[-87.70475543969408,41.92744746344672],[-87.7046785328789,41.92740055812886],[-87.70466890200281,41.927394684735795],[-87.70461309672085,41.92736039875253],[-87.70446726936645,41.92727080376439],[-87.70427270712526,41.92715148805568],[-87.70420182198363,41.92710801687137],[-87.70383968609377,41.926885918273776],[-87.7036283631558,41.92675629888369],[-87.7035988105912,41.926738171530104],[-87.70357424218236,41.92672310203188],[-87.7032687289078,41.926535587007564],[-87.7030437656634,41.926397003583034],[-87.70297585276192,41.92635513254286],[-87.7028027275214,41.926248392648546],[-87.70277120984957,41.926228960508794],[-87.70272823868697,41.926202562591754],[-87.7023466311845,41.92596813478101],[-87.70234504556451,41.92591701676683],[-87.70234155410778,41.92580445573931],[-87.70234165074532,41.92576699784368],[-87.70234178005072,41.92571655910096],[-87.70234181319509,41.9257038969752],[-87.70234195909926,41.9256470020226],[-87.70234212579597,41.925582368806396],[-87.70233967209593,41.92543998358305],[-87.70233885316705,41.925392422498554],[-87.70233821796081,41.92537099644162],[-87.70233739913571,41.92534336786938],[-87.70233684549558,41.92532467567698],[-87.70233649887894,41.92531299192803],[-87.70233540235802,41.925275983942015],[-87.70233503242632,41.925263485261816],[-87.70233468053057,41.925251358519006],[-87.70233467687943,41.92525123965474],[-87.70233467081722,41.92525112077722],[-87.70233466152872,41.925250962267256],[-87.70232664930367,41.925060935881795],[-87.70232514559629,41.925007013766454],[-87.70232327953674,41.924940069016436],[-87.70232171632786,41.924883988470256],[-87.7023183348957,41.92476271638628],[-87.70231337285452,41.92458468480238],[-87.70231306075898,41.92456998782058],[-87.70230832746726,41.924347089295175],[-87.7023021989383,41.92410012974346],[-87.70229736105875,41.92399196571884],[-87.70229581592586,41.92395742217657],[-87.7022867089154,41.92380034199223],[-87.70228037070147,41.92369101998787],[-87.70227326498653,41.923568441730936],[-87.70226974221973,41.923463482913405],[-87.70226565604015,41.92336700845644],[-87.7022619540907,41.923279623191874],[-87.70226107691255,41.92325889985894],[-87.70225961881981,41.923224457627775],[-87.70225462894948,41.92310665016037],[-87.70225401187774,41.923083999738424],[-87.70225202476205,41.92301099954588],[-87.70225050147539,41.9229550362432],[-87.70224569569534,41.922814880761216],[-87.70224387826269,41.922761608742455],[-87.70224236707732,41.92271775321171],[-87.70224065070941,41.92265703957658],[-87.70223830207622,41.92257399505228],[-87.70223787734506,41.922558985930166],[-87.70223769480589,41.92255255293194],[-87.70223672826029,41.922510560485634],[-87.70223325619015,41.922384930229015],[-87.70245520315915,41.92238130069386],[-87.70314399999955,41.92237494084704],[-87.70321376535479,41.922374296440566],[-87.70323742506608,41.92237408865099],[-87.70378839952696,41.922369243696124],[-87.70436270765616,41.92236374692589],[-87.70467963773905,41.92236042176538],[-87.70543099773465,41.92235253692221],[-87.70563973320773,41.92235034514819],[-87.70568645096722,41.9223499360795],[-87.70588000369509,41.92234824339246],[-87.70590711395369,41.92234800619051],[-87.70613098277535,41.92234616901699],[-87.7062459752087,41.922345172882416],[-87.70628002521144,41.922344872654925],[-87.70636352610607,41.92234414648629],[-87.70651898031568,41.922342780385264],[-87.70658695611786,41.92234218268165],[-87.70674201781983,41.92234236631431],[-87.70679226806335,41.92234242533975],[-87.70714207391796,41.92232299830414],[-87.70713623592766,41.92214799528889],[-87.70713067512716,41.92198126426093],[-87.70712557816839,41.92183737456672],[-87.70711858045627,41.921639816309444],[-87.70711816102926,41.92162599747385],[-87.70711514294334,41.921526565970254],[-87.70711287154053,41.92145174650704],[-87.70719653606312,41.921448837309676],[-87.70726965583889,41.921446294615606],[-87.70729042019424,41.92144022072385],[-87.70732279445197,41.92143075013608],[-87.70736650306462,41.921406234600134],[-87.70738491628373,41.92139094374387],[-87.70744440855151,41.92134153891262],[-87.70748381109848,41.92130651815334],[-87.70753614792702,41.92124494855338],[-87.70756728471316,41.92118716004681],[-87.70759713265986,41.92111457289463],[-87.70760599511686,41.92105737695505],[-87.70760591221996,41.921056854308674],[-87.70759986754321,41.921018869522804],[-87.70758672334586,41.92097263948798],[-87.70756967561218,41.92092740465681],[-87.70755051154521,41.920895686731576],[-87.70749446952067,41.9208248544029],[-87.70745714928054,41.92078979899393],[-87.707421865652,41.920764442285595],[-87.70738513348448,41.920740641552776],[-87.70733528454494,41.92071679720899],[-87.70728411214766,41.9206967594494],[-87.70723760275997,41.9206844863779],[-87.7071777120673,41.92067296322429],[-87.70713973264861,41.92066787178822],[-87.70711835711668,41.92066620033465],[-87.70708096047531,41.920663276464275],[-87.70707558918882,41.920662856423284],[-87.70707450192462,41.92066284509125],[-87.70707401417353,41.92064454941182],[-87.70705778713362,41.920035241572],[-87.70705521585272,41.919938704355054],[-87.70704067984967,41.91939294236136],[-87.70703442704092,41.91922502533466],[-87.7071123601735,41.91922421242574],[-87.70741500116146,41.91922105655701],[-87.70742801694439,41.91922092042931],[-87.70762788800246,41.91921883516482],[-87.70770454524965,41.91921806982178],[-87.70771435410217,41.91921796750752],[-87.70794599436285,41.91921565773087],[-87.70806265241268,41.91921449147427],[-87.70817219617942,41.9192133962066],[-87.70817530784501,41.91921336543021],[-87.70817843163516,41.919213327517085],[-87.70827400569596,41.91921228394179],[-87.70837010538105,41.91921123684542],[-87.70859301558276,41.91920879001431],[-87.70866515850052,41.91920799946808],[-87.70867599699395,41.91920788106506],[-87.70873234511916,41.91920726384679],[-87.70877954382196,41.91920674629135],[-87.70898177765564,41.91920403228298],[-87.70917098447282,41.919201492898516],[-87.70924601248612,41.9192006636499],[-87.7093085165427,41.91919997246712],[-87.70936058235156,41.91919939739225],[-87.70963382477147,41.91919637752705],[-87.70963539689889,41.919196359956715],[-87.70964006025123,41.91919630605725],[-87.70997201630368,41.9191928768165],[-87.71003369889502,41.91919223840083],[-87.71029822845998,41.91918904631209],[-87.71030446397377,41.91918897120508],[-87.71031105153273,41.919188891705524],[-87.71062978255219,41.91918504487649],[-87.71126765022414,41.91917703114208],[-87.7116070450387,41.91917150367717],[-87.7119327734414,41.91916619836142],[-87.71214780369426,41.91916269540816],[-87.71225799662382,41.91916090019285],[-87.71226913829675,41.91916071826629],[-87.71245439950337,41.919158780563926],[-87.7128156411169,41.91915500086352],[-87.71323059257564,41.919150162293036],[-87.71342093213899,41.919149999809086],[-87.7135633218494,41.91914987801999],[-87.71380092776378,41.91914967380806],[-87.71383573810982,41.91914922778462],[-87.71389101171808,41.91914852030667],[-87.71487802037528,41.91913587536644],[-87.71505226614596,41.91913364185462],[-87.71512443634897,41.91913300585556],[-87.71520707006192,41.91913225687588],[-87.7153499122511,41.919130963069314],[-87.71553102043273,41.91912914570587],[-87.71586264217483,41.91912581737887],[-87.71650302867923,41.91911837332022],[-87.7166988300756,41.91911609644441],[-87.71682807916794,41.91911429833952],[-87.71696922318894,41.91911233345429],[-87.71713400210056,41.91911010448745],[-87.71731701515706,41.91910762828032],[-87.71743303180882,41.91910605831546],[-87.7174396725065,41.91910596698751],[-87.71796693283622,41.91909883256845],[-87.71820840271783,41.919095933532496],[-87.71835600380095,41.91909416179301],[-87.7186244205884,41.91909093802642],[-87.71878301952118,41.91908876634295],[-87.71915609174918,41.9190836569977],[-87.7192727467059,41.919082266854446],[-87.71937069760877,41.919081099804956],[-87.71976200926075,41.919076440747254],[-87.72004677751684,41.91907304983524],[-87.72096039191952,41.919062256433605],[-87.72123103746956,41.91905852076576],[-87.72160149951382,41.91905340666605],[-87.72172084826953,41.91905230659048],[-87.72182411081191,41.91905135481069],[-87.72196501756959,41.919049969539195],[-87.72202600639747,41.91904936960469],[-87.72233051293935,41.91904636891844],[-87.72239618305207,41.91904572797266],[-87.72263701600426,41.91904270819299],[-87.7226990215328,41.91904193054007],[-87.72282333761036,41.919040371353525],[-87.72294354961701,41.919039000894486],[-87.72310577733825,41.91903715224506],[-87.72318802521238,41.91903601102701],[-87.72325000378687,41.91903515100269],[-87.72344771623014,41.919032408197076],[-87.72355480279705,41.919030920564616],[-87.72360353130885,41.919030246579766],[-87.72386199377245,41.919027669874936],[-87.72391334748617,41.91902715824821],[-87.72392300072315,41.91902706182625],[-87.72395731328871,41.91902671993303],[-87.72402924176974,41.91902600232551],[-87.72416751881582,41.919024791267816],[-87.72420732122438,41.91902444241091],[-87.72427698599049,41.91902383148392],[-87.72431131073255,41.91902309610255],[-87.72441800043642,41.919022012512],[-87.72449868290828,41.919021192477025],[-87.72466746548585,41.91901901444136],[-87.72473400311921,41.91901815977586],[-87.7247722807474,41.91901766669062],[-87.72484931946312,41.91901667404042],[-87.7248623077398,41.91901650697967],[-87.72487600734505,41.91901633018176],[-87.72490243722321,41.91901598945147],[-87.72495225878804,41.91901534679577],[-87.72522301973946,41.9190118562235],[-87.72560916329343,41.91900687796442],[-87.72602468679038,41.91900101751412],[-87.72626698906066,41.91899759994242],[-87.72637892724558,41.91899602098297],[-87.72640015063926,41.91899580544385],[-87.7264490051946,41.918995309184105],[-87.72652373073541,41.918994549876565],[-87.72661499831462,41.918993623132394],[-87.72667549173033,41.918993009106934],[-87.726859020304,41.918991144345625],[-87.72687475098134,41.918990984339125],[-87.72691800983296,41.91899047093007],[-87.72715952084418,41.91898760280333],[-87.72722016957756,41.91898688037013],[-87.72732954822392,41.918985583183634],[-87.72752900356518,41.9189832143868],[-87.72755781185252,41.91898287208839],[-87.72759300916069,41.9189825346765],[-87.72783795925102,41.91898018835351],[-87.72801413021804,41.918978500828615],[-87.72808103743586,41.91897769028816],[-87.72814102076097,41.918976963861084],[-87.72844411897091,41.91897329669686],[-87.7285743045014,41.918971715385304],[-87.7287489919055,41.918969599362434],[-87.72876568856259,41.9189693973655],[-87.72880999916741,41.91896894820338],[-87.72883396528033,41.91896870523857],[-87.72905400649113,41.918966472777065],[-87.72905347808529,41.91895961573608],[-87.72904545916498,41.91885561260298],[-87.72903939265979,41.91859999500055],[-87.72902864194148,41.91814694767578],[-87.72902085145027,41.91781865751325],[-87.72901554082492,41.9175944808919],[-87.72901494045071,41.917569443875614],[-87.72901331768225,41.91750098275],[-87.72901009127291,41.91736497263785],[-87.72900828692374,41.917288927019335],[-87.72900021029018,41.91713497737836],[-87.7290064456025,41.91713490035394],[-87.72924402162495,41.91713196300601],[-87.72928449328485,41.91713146285102],[-87.72952724267643,41.917128183894135],[-87.7299770273492,41.917122157954196],[-87.73006569452284,41.91712096990768],[-87.73017738127054,41.917119364311],[-87.73022163689862,41.91711872794381],[-87.7304659796025,41.91711521408057],[-87.73049346756437,41.91711481909545],[-87.73072796916273,41.91711243605023],[-87.73120102905291,41.91710762677222],[-87.73128757893721,41.91710674629867],[-87.73142128595882,41.91710420155122],[-87.73144602378856,41.917103730699004],[-87.73168397257706,41.91709920026146],[-87.73170581560332,41.91709878441162],[-87.73211126107654,41.91709404115653],[-87.73240101410147,41.917090651091634],[-87.7324414746133,41.91709017767587],[-87.73254451243884,41.91708879911824],[-87.7326399887312,41.917087522264175],[-87.73266923900427,41.91708713057533],[-87.73267701982208,41.91708703982816],[-87.7328342215072,41.917085206954944],[-87.73291902348444,41.91708380742035],[-87.73321442702513,41.91707893138264],[-87.7335153788626,41.91707396292267],[-87.73364499368819,41.91707265738116],[-87.73379263166427,41.91707117029628],[-87.7338868752859,41.91707022089435],[-87.73412801425008,41.91706779082663],[-87.73485400854453,41.91706047320412],[-87.73509573336239,41.91705803515402],[-87.73534201036648,41.91705555097612],[-87.73555086551193,41.91705344407187],[-87.73608101109822,41.91704759646861],[-87.73628402463326,41.917045356108],[-87.73632797617243,41.91704487156408],[-87.73633343402979,41.91721525354947],[-87.73633378802228,41.917227972645755],[-87.73633501242203,41.91727198386766],[-87.73634133144438,41.917498969086864],[-87.73634411326816,41.91759911719065],[-87.73634507094178,41.91763449819665],[-87.73634770983425,41.91773200486762],[-87.73634900923057,41.91777999956462],[-87.73635399028491,41.91796404165621],[-87.73635888811461,41.91814498705167],[-87.73636016053293,41.91819199753708],[-87.73636286241027,41.91829180398528],[-87.73636602007338,41.918418630999675],[-87.73636651990563,41.91843859675961],[-87.73637168831114,41.91864600443547],[-87.73637280952522,41.918691002778914],[-87.73637436077233,41.91875323849846],[-87.73637737874968,41.918874362045266],[-87.73637922815863,41.918948583691076],[-87.73638263077305,41.91905598900683],[-87.73638408855061,41.91910199837379],[-87.73638666581056,41.9191833634681],[-87.73639131841762,41.91933113735712],[-87.73639845991924,41.91955799171829],[-87.7363998765517,41.919602985287845],[-87.7364039532621,41.919732491049224],[-87.73640564899438,41.919786342676446],[-87.73640828497969,41.919870077751085],[-87.73641143079152,41.919969992716915],[-87.73641161503124,41.919975835056384],[-87.73641245464599,41.920003452734406],[-87.73641283555494,41.92001600270105],[-87.73641982594607,41.92024602003017],[-87.73642140003359,41.92029792179212],[-87.73642387594808,41.9203733540268],[-87.73642724472525,41.92047599546027],[-87.7364287545661,41.92052198617907],[-87.73643350458735,41.9206666975952],[-87.73643479651497,41.92070606160588],[-87.73644278200888,41.920949356834306],[-87.73644677537312,41.92107100489788],[-87.73645067658238,41.921189865939574],[-87.73647155732897,41.92185904569394],[-87.73648208380229,41.92216901765307],[-87.73649451154553,41.92253499856805],[-87.73634556911814,41.922536050166514],[-87.73631320675476,41.922536495933095],[-87.73625200871535,41.922537339152846],[-87.7361890045271,41.92253820715982],[-87.73609684394044,41.92253947718979],[-87.73593168993415,41.92254174671404],[-87.73588302996828,41.9225424235831],[-87.73573221154841,41.922544522519274],[-87.73559932336171,41.922546355363885],[-87.73558301384989,41.92254657117274],[-87.73552503171148,41.92254733801174],[-87.73534514721923,41.922549716369026],[-87.73528282214208,41.92255054059797],[-87.73503799498306,41.92255377675186],[-87.73502007224103,41.92255401378594],[-87.734975990365,41.922554494443695],[-87.73477131746387,41.9225567238169],[-87.73466889037455,41.922557861753006],[-87.73458959422015,41.92255874027415],[-87.73436398471247,41.922561201873386],[-87.73434116972238,41.92256145109534],[-87.73430299870877,41.922561926315964],[-87.73405837942319,41.92256496879341],[-87.73405176740374,41.92256505132805],[-87.73381302343772,41.922568020408214],[-87.73375301733044,41.92256876678128],[-87.73369459792082,41.92256949259845],[-87.73346388553351,41.92257218057518],[-87.73344865789537,41.922572342310644],[-87.73344849874498,41.922572344180175],[-87.73344834323636,41.92257234336774],[-87.73327051094229,41.92257441227772],[-87.73314100483233,41.922576178020826],[-87.73307802476099,41.9225770372439],[-87.73283416944973,41.922580362011466],[-87.7326551690633,41.922582802900784],[-87.73258901021698,41.92258350387362],[-87.73252800321042,41.92258414983454],[-87.73222134777083,41.9225873931783],[-87.7319160112207,41.922590631807],[-87.73185502590363,41.92259127752393],[-87.73163628919923,41.92259359419905],[-87.73161129561348,41.92259385847226],[-87.73161475488163,41.92268528588984],[-87.7316145274913,41.92271025731112],[-87.73162214132849,41.922959997223586],[-87.73163125746582,41.9232589960596],[-87.7316401955926,41.923552184081],[-87.73165107667289,41.92392369705767],[-87.7316082747503,41.92392244638082],[-87.73157451097096,41.92392146003604],[-87.7314517660203,41.92392328631331],[-87.73130677590865,41.92392612124739],[-87.73111125116762,41.92392989831538],[-87.73104803772686,41.92392991788692],[-87.73104180125128,41.923929920287335],[-87.73097510598664,41.923929952166496],[-87.73075434688177,41.92393274542763],[-87.73073033493031,41.9239330506733],[-87.73057107231052,41.923935076900385],[-87.73046644823746,41.923935634140406],[-87.73042885041711,41.923935833777975],[-87.73035245883437,41.923936233938505],[-87.73018715594317,41.923938164889435],[-87.72981460898664,41.923943721552114],[-87.72975896496662,41.923944549986146],[-87.72965095533813,41.92394615918544],[-87.7292807721298,41.92395046967488],[-87.72922397760819,41.92394980354247],[-87.72920427822875,41.923949572950306],[-87.72920894678755,41.924090982600156],[-87.72921267171783,41.92420398709938],[-87.72922104693399,41.924458043707425],[-87.72897502385555,41.924461113875104],[-87.72895890565957,41.924461315343834],[-87.72842317404364,41.924465766248964],[-87.72824001092013,41.9244676165074],[-87.72799511099159,41.924470089069935],[-87.72793601346737,41.92447068593384],[-87.72778362589561,41.924472224146676],[-87.72776000979509,41.924472462432966],[-87.72772642132807,41.924472801174666],[-87.72770200102113,41.92447304781209],[-87.72766958690791,41.92447337472459],[-87.72751501699888,41.924474935282255],[-87.72713034952902,41.92447881668306],[-87.7269550081512,41.92448130760997],[-87.72679516788264,41.92448357854086],[-87.72676858350643,41.924483955801236],[-87.72677400782115,41.92462201577328],[-87.72677832980472,41.9247319929608],[-87.72677855031749,41.924737605015586],[-87.7267819756868,41.92485098343293],[-87.7267854109329,41.92496472023361],[-87.72678588158776,41.924980453378474],[-87.7267870491508,41.92501896238567],[-87.72679217435379,41.92518860902762],[-87.7268043152996,41.92562157505596],[-87.72680506737053,41.92564998370425],[-87.72681309495275,41.9259529843971],[-87.72681576537548,41.926053796425656],[-87.72682238213699,41.92632106344725],[-87.726825659825,41.92645348403981],[-87.7268274335218,41.92652512316743],[-87.72682904624556,41.92657608074739],[-87.72683243053376,41.92668299270412],[-87.72684224384925,41.92699299567559],[-87.72684310302218,41.9270201552177],[-87.7268450950832,41.92710247436473],[-87.72685451267395,41.92749156424427],[-87.72686069612533,41.92766483934838],[-87.72686226681517,41.927709037881854],[-87.72686440442737,41.927768992568836],[-87.72686900480672,41.92789797993403],[-87.72687129583007,41.92796223272747],[-87.72687427947953,41.92808166980035],[-87.72687552938334,41.92813173411823],[-87.72688260082175,41.92839800587154],[-87.72688421644848,41.9284588482252],[-87.72688525628078,41.9284979966718],[-87.72688726918207,41.928573795682965],[-87.72688829013748,41.928612264276346],[-87.72688977838628,41.92866542519923],[-87.72690293230919,41.929134376383416],[-87.72690796733032,41.92931601668216],[-87.72691434486516,41.929546097565776],[-87.72691575448283,41.929589105891566],[-87.72691607915704,41.92959899868221],[-87.72692156847049,41.92976641427828],[-87.72692211982438,41.929803166146336],[-87.7269245617334,41.92996606757043],[-87.72692475069907,41.92997870476369],[-87.72693512198101,41.930255973436196],[-87.7269376563139,41.9303389778533],[-87.72694665105672,41.93063353016064],[-87.72695281837146,41.93086966192773],[-87.72695298649478,41.930876098405896],[-87.72695773722674,41.93105798924039],[-87.72695899100268,41.93110599988954],[-87.72696013592977,41.9311498450167],[-87.72696565567271,41.93133532863615],[-87.72696885169287,41.93144293636607],[-87.72697120068834,41.93152196571115],[-87.72697232026707,41.9315619959848],[-87.72697357850224,41.93160699143366],[-87.72697692883644,41.93172682471196],[-87.72697870475997,41.93179036167611],[-87.72673507223249,41.931795071033626],[-87.72668007384067,41.93179613366261],[-87.72664971413646,41.931796720529114],[-87.72638236463722,41.931799426622725],[-87.72607200995783,41.93180257090149],[-87.72600402460995,41.931803259306555],[-87.72580784745169,41.931805244794944],[-87.72576113676202,41.93180571789985],[-87.72561767416418,41.93180716989144],[-87.72551600482514,41.93180819921279],[-87.7254592530878,41.931808773897764],[-87.7253429207186,41.93180995051972],[-87.72478199443593,41.9318177838471],[-87.72465228933042,41.931819594753904],[-87.72453830655964,41.931821186365966],[-87.72429001580842,41.93182465128471],[-87.72418953412796,41.93182605396778],[-87.72393556176331,41.93182877941446],[-87.72354701829433,41.93183466743239],[-87.72331401904441,41.9318381979449],[-87.72330002457907,41.93183840899926],[-87.72328538615113,41.93183863103582],[-87.72305700306664,41.93184209101775],[-87.72302065119636,41.93184264147402],[-87.72288684205736,41.93184466806033],[-87.72233117175557,41.93184862791302],[-87.72218006075451,41.931850239283996],[-87.72208764929411,41.93185122391239],[-87.72208799945975,41.93202039496129],[-87.72208809903239,41.93206843642019],[-87.7220923824708,41.93221599427352],[-87.72209501680635,41.93230694114075],[-87.72209675458109,41.93236664254156],[-87.72210272427073,41.9325920576477],[-87.72210379414092,41.93264164924037],[-87.72211135009438,41.93299202023088],[-87.72211184416518,41.93301490845045],[-87.72212021611887,41.93331101253283],[-87.72212646078064,41.933531888681095],[-87.72213061926276,41.933676510742316],[-87.72213360548403,41.933780369346266],[-87.72213405551761,41.93379599973701],[-87.72213424845062,41.933802692045255],[-87.72213595184648,41.933861959286205],[-87.72213745427024,41.93390401017338],[-87.72214560995091,41.934132234191274],[-87.72214600037285,41.93414312130522],[-87.72214646229598,41.93415599133478],[-87.72214685749178,41.93416700992284],[-87.72214733151114,41.934187958711895],[-87.72214769439333,41.93420400369148],[-87.72214846771934,41.93423818447867],[-87.72214934814915,41.93427706017614],[-87.72208489671094,41.9343091876171],[-87.72200623387667,41.93437592021345],[-87.72175960018004,41.93460586201888],[-87.72164062494942,41.93471537866857],[-87.72161951778916,41.93473480796132],[-87.72158205762928,41.93476939727356],[-87.7215415026539,41.934806839446544],[-87.72126537024232,41.93506181612115],[-87.7210580494667,41.93525395836374],[-87.72095236864986,41.935351821033535],[-87.72079221175238,41.935500127689565],[-87.72074215450228,41.935546481700726],[-87.72060059110709,41.93567666363325],[-87.72041611710007,41.93584630393234],[-87.72020409813547,41.93604260877192],[-87.72017352753197,41.93607091316377],[-87.72015607929974,41.93608704849436],[-87.72012870616598,41.93611236193579],[-87.7200431193601,41.93619150869364],[-87.72004301838608,41.93619160178896],[-87.7199268377575,41.936299040077614],[-87.71985103917483,41.93636913390997],[-87.71966124523279,41.93654438153278],[-87.7197248980829,41.936583093933976],[-87.7197770050933,41.936614785025036],[-87.71991861000822,41.936700360247556],[-87.71997287590246,41.93673315488759],[-87.71998416812237,41.93673997851497],[-87.72006823579669,41.936790782315086],[-87.72014746612952,41.93683866204638],[-87.7203205963164,41.93694345168063],[-87.72040529198306,41.936994714154366],[-87.72045201097056,41.93702299092138],[-87.72051496639455,41.937061095036086],[-87.72059348637197,41.93710956128546],[-87.72064040158035,41.9371385196746],[-87.72074000169107,41.937199997385655],[-87.7210014680399,41.93736138404027],[-87.72104070275124,41.93738527114177],[-87.72113093657252,41.93744020896112],[-87.7211419312413,41.937446902139946],[-87.72115949321264,41.93745759450044],[-87.72128373994732,41.93753323753937],[-87.72142099696387,41.93761680248842],[-87.72170087869839,41.937785883597876],[-87.72170972162472,41.93779125617512],[-87.72183827625052,41.937869366864135],[-87.72185256331736,41.93787804743839],[-87.72205994257229,41.93800405221873],[-87.72208549803072,41.93801957946686],[-87.72221743804025,41.93809974610644],[-87.72253337446124,41.938292534677295],[-87.72268526081815,41.938381751695474],[-87.72289634883205,41.93850574263121],[-87.72305896489928,41.93860126000869],[-87.72310291812862,41.93862707658705],[-87.72313929521928,41.93864844395392],[-87.72371499897261,41.93900600105608],[-87.72391930217597,41.939132888264034],[-87.72390798166741,41.93913300014084],[-87.72389814451063,41.939133097381706],[-87.72383902809935,41.93913399903101],[-87.72359901790908,41.939137657626745],[-87.72353368435944,41.93913865394968],[-87.72351973652162,41.93913886617646],[-87.7235006328643,41.93913915725645],[-87.72327404343545,41.939142611853164],[-87.72324131515235,41.939143110500304],[-87.72265129772306,41.93914996213862],[-87.72253801787105,41.93915170764073],[-87.72229329034491,41.939155477962956],[-87.72220805215426,41.93915679075576],[-87.7220316311841,41.93915950784723],[-87.72195601428183,41.93916009379021],[-87.721887841729,41.93916062209203],[-87.72187210282567,41.939160744450774],[-87.72171100069303,41.93916199315685],[-87.7215321324485,41.939163379256925],[-87.72123099699729,41.93916688724448],[-87.72107095614396,41.939168751136],[-87.72104959911003,41.939169000080874],[-87.72099501319757,41.93916963541856],[-87.72089008647696,41.93917085753376],[-87.72081937756442,41.93917168048601],[-87.72076898672208,41.93917258118565],[-87.72069358075413,41.93917393000452],[-87.72068136446211,41.93917414842466],[-87.72052403009594,41.939176961441326],[-87.72040445418831,41.93917909889207],[-87.7201245733231,41.93918221415362],[-87.72001701585391,41.93918363750044],[-87.71987575862445,41.93918550732686],[-87.71984755348927,41.9391858806184],[-87.71983851559709,41.93918599978869],[-87.71981500790108,41.93918631083958],[-87.7197180139224,41.93918759497935],[-87.71968610631485,41.93918801686924],[-87.71947301986688,41.939190835671766],[-87.71934453796418,41.939192535458716],[-87.71890410566057,41.93919616117782],[-87.71883801348638,41.93919678163212],[-87.71867400229553,41.93919832022155],[-87.71862599610382,41.93919877087573],[-87.7185974736216,41.93919903862281],[-87.71857597778504,41.93919929896899],[-87.7184134951048,41.93920126762646],[-87.71834000355324,41.939202157879556],[-87.71826279990735,41.93920309392426],[-87.71821054248912,41.9392037269067],[-87.71817566067816,41.939204328715135],[-87.71774301744428,41.93921178661478],[-87.71763402750048,41.93921319014498],[-87.7173991718387,41.9392162142795],[-87.717409475465,41.93944896419508],[-87.71741369227502,41.93954421142372],[-87.71741470232435,41.93957997356215],[-87.71741701439721,41.939661882943454],[-87.71741734076238,41.93967345577209],[-87.71741759013055,41.93968237850805],[-87.71741778862159,41.939689320238834],[-87.71742780985105,41.94004428429624],[-87.71743638185639,41.94036000855771],[-87.71744002142124,41.94049407232051],[-87.71744321081493,41.940602988273],[-87.71744526124054,41.94067299563821],[-87.71744948243568,41.94081717234911],[-87.7174561732335,41.941037925691795],[-87.71746314702428,41.94126799718558],[-87.7174640732997,41.94129855944283],[-87.71746842475194,41.94144624993402],[-87.7174724680631,41.94158348140576],[-87.7174743773719,41.94164184220015],[-87.71748472079422,41.94195798642479],[-87.71748490909617,41.9419637324565],[-87.71749106068809,41.942188407410775],[-87.717494718325,41.94232198954886],[-87.71749997688289,41.942514028951095],[-87.71750609284466,41.94272599820163],[-87.7175099920816,41.94286117160971],[-87.7175146130587,41.943021349314044],[-87.71751747489563,41.943131992998765],[-87.71751804337744,41.943153999269406],[-87.71751877743685,41.94318235917287],[-87.71751967822976,41.943217203263394],[-87.71752254268675,41.943319806090635],[-87.7175260754387,41.943446325325596],[-87.71751999947233,41.9439859995934],[-87.71752011181304,41.94401079354371],[-87.71752012248736,41.94434215725064],[-87.71752000022698,41.944408999953055],[-87.71749602663904,41.944671808854984],[-87.71750899983988,41.94497100026114],[-87.71754492096191,41.945413263140246],[-87.71753200009256,41.945457999760485],[-87.71753300041881,41.94548099960393],[-87.71754848273142,41.945807097335866],[-87.71754900009967,41.94581800042906],[-87.71755715385437,41.946102477008345],[-87.71756030540814,41.946126759655215],[-87.71755800057959,41.94635899959574],[-87.71755901917585,41.9465042970047],[-87.71757300051529,41.94663699986522],[-87.71761500025552,41.947037999682735],[-87.71762868755778,41.94717220540194],[-87.71762968766804,41.94719811600903],[-87.71762998909293,41.94720451628278],[-87.71763939507271,41.94740414954815],[-87.71764417987232,41.94756778527441],[-87.7176516293489,41.94784040782069],[-87.71765840473128,41.94809497869269],[-87.71766306826495,41.94827022262316],[-87.71766455288173,41.948325999819616],[-87.71767086052712,41.94856300989699],[-87.71767333522018,41.9486560229065],[-87.71767413595988,41.94868999760674],[-87.71767522910513,41.94873632462158],[-87.7176767555174,41.9488010459301],[-87.71769006880766,41.94932775987009],[-87.71769485883763,41.94949087427639],[-87.71769879160739,41.94962438388866],[-87.7177007325626,41.94969027243853],[-87.71770172136732,41.949734786518775],[-87.71770279154313,41.949783002296954],[-87.71770936026168,41.95007876302776],[-87.71771253870841,41.950148282040985],[-87.71772156034402,41.950510006064526],[-87.71772765868228,41.95075451378568],[-87.71773844708764,41.95114998535005],[-87.71773974388822,41.951198217636886],[-87.71775043787213,41.95159599351112],[-87.71775119810644,41.95162428148584],[-87.71776047176702,41.9519582171508],[-87.71776487451996,41.952116987108056],[-87.71776759365416,41.952214952289054],[-87.71776789983416,41.952226000990954],[-87.7177687517428,41.952256670829264],[-87.71777568552741,41.95249460333584],[-87.71777865266681,41.95259700577002],[-87.71777949651376,41.95262600725003],[-87.71778186571638,41.952707445873855],[-87.71778329755766,41.952756690843174],[-87.717789299472,41.95296299511348],[-87.71779107410087,41.95302399843781],[-87.71779324567581,41.95309865200387],[-87.71779880762777,41.95328989046909],[-87.71780206834985,41.95340190009127],[-87.71780361247332,41.95345477128826],[-87.71780610206314,41.95353999913703],[-87.71781165235906,41.95372994825112],[-87.71781330382527,41.953786456456065],[-87.71658824991609,41.953804034426454],[-87.71560692508459,41.95381810498251],[-87.71536206398075,41.95382161483779],[-87.71524921391713,41.95382323207748],[-87.71511392652272,41.953825171352364],[-87.71412472158644,41.95383934256221],[-87.71387992187665,41.95384284868673],[-87.71314895699959,41.95385331315381],[-87.7129049557886,41.95385680530657],[-87.71290226994454,41.95379820628197],[-87.71289364038431,41.95361000856057],[-87.71289082996755,41.953548710569194],[-87.71288832120247,41.95349399202281],[-87.71288746702267,41.95347536226708],[-87.71288595783425,41.953439330082084],[-87.71288262954772,41.95335967334891],[-87.71287905005848,41.95327433056924],[-87.71287494717802,41.95306387590856],[-87.71287359977617,41.95299474843869],[-87.71286930241043,41.95283133499732],[-87.71286579293358,41.95269798785294],[-87.71286376873928,41.9526210436507],[-87.71286005417059,41.95249242933219],[-87.71285740119279,41.95240097739991],[-87.71285440556531,41.95229772387874],[-87.71284745407667,41.95203664438928],[-87.71284281907278,41.95186253946681],[-87.7128372845761,41.95167199503729],[-87.71283422026416,41.95156650200847],[-87.71283192082487,41.95148710290138],[-87.7128270044018,41.95131739815898],[-87.7128213960078,41.951122418281024],[-87.71281644516792,41.95094308520164],[-87.71281327440809,41.950826438282874],[-87.7128085337891,41.95065204554643],[-87.7128065803176,41.95058000670211],[-87.7128045263789,41.95050427505608],[-87.71280712657166,41.95029985092576],[-87.71280819291735,41.95021601875492],[-87.71280978630189,41.95009077779986],[-87.71280893685861,41.950062338950325],[-87.71280863905717,41.950052380578505],[-87.7128083594472,41.95004303362989],[-87.7128082080947,41.95003799635937],[-87.71280706054588,41.94999963064761],[-87.71280406719018,41.94989963989504],[-87.71279895186781,41.94972969094073],[-87.71279459650998,41.94950700378445],[-87.71279199202057,41.94937388563546],[-87.7127911415833,41.949330379733155],[-87.71254164662619,41.94915828584986],[-87.71251090865807,41.94913708430418],[-87.71248959863496,41.94912232338334],[-87.7122630107109,41.948965372984915],[-87.7121904566049,41.94891512283623],[-87.7121752996735,41.948904617699164],[-87.7120510425747,41.948819332235445],[-87.71191230488527,41.948724106931785],[-87.71186866084348,41.94869427680837],[-87.71179559059068,41.94864433422904],[-87.71154672680014,41.94847423672133],[-87.71129663390444,41.94830329830488],[-87.71119703442201,41.94823522118544],[-87.71086662568896,41.94800944676416],[-87.7105472325974,41.94779062317714],[-87.71029868841235,41.9476203374123],[-87.71014886288364,41.9475176868845],[-87.71007490800527,41.94746672012682],[-87.7100490903689,41.94744892807361],[-87.70998053132226,41.94740168100592],[-87.70963024464353,41.94716086668254],[-87.709299946943,41.94693522697915],[-87.7090503323346,41.946764702192354],[-87.70900814520348,41.94673588096574],[-87.70891446362755,41.94667188192494],[-87.70888395368968,41.946651038974345],[-87.70884299826173,41.94662305989344],[-87.70883133797018,41.94661509335925],[-87.70863569145362,41.94648143627315],[-87.70855744578512,41.946427980977994],[-87.70830154176588,41.946253675848865],[-87.70801181647283,41.94605832436011],[-87.70783306756245,41.94593779923295],[-87.70780352973412,41.945917883229214],[-87.70779467494174,41.945599020316486],[-87.70778953798582,41.945414038072975],[-87.70778914767445,41.94539400896614],[-87.70778692120948,41.94527991759403],[-87.70778691765311,41.94527978792686],[-87.70778650475427,41.945258615275066],[-87.7077845420876,41.94515800330498],[-87.70778131559688,41.94502099483478],[-87.7077776565353,41.94486556771601],[-87.70777524029633,41.94476299684651],[-87.70777337238137,41.9446836593264],[-87.70776427351542,41.94436610319626],[-87.7077584173871,41.94414799378024],[-87.70774966291283,41.94382198988009],[-87.70774794336153,41.943757950696934],[-87.7077432209697,41.94358424551026],[-87.70774185497245,41.943534002238586],[-87.70774126765305,41.94351241627781],[-87.70773864671682,41.94341598993527],[-87.70773546593398,41.94329899245345],[-87.70773307367175,41.94321100256496],[-87.70773244771942,41.943184980456046],[-87.70773194934156,41.943164289008365],[-87.70772556222764,41.94299052161295],[-87.70772528609179,41.94298299423177],[-87.70772025079253,41.9428459947597],[-87.70771609937572,41.942733058777584],[-87.70770666014914,41.942393989943874],[-87.70769270735923,41.94189281957088],[-87.70767831913811,41.941376010707344],[-87.70767624329481,41.941301430263344],[-87.70766994923768,41.94103811534986],[-87.70766967354263,41.94102659679462],[-87.70766576440535,41.94086299048296],[-87.70766440008103,41.94080592447634],[-87.70766424675963,41.94079817087766],[-87.70766382664208,41.94077700177114],[-87.70766273123023,41.94072178651201],[-87.70766100230051,41.94063466631774],[-87.70765932141136,41.940573470559045],[-87.70765772695873,41.94051552186986],[-87.70765715883587,41.94049469048078],[-87.70765536394258,41.94042936787519],[-87.70765288563665,41.940338971784186],[-87.70765157099285,41.94029101110638],[-87.70764799138514,41.94019842930642],[-87.70764518175179,41.940169557435254],[-87.70764473034225,41.94016491196008],[-87.70763793556556,41.940095057739455],[-87.70763155929248,41.94002951569056],[-87.70762483136004,41.93993568147212],[-87.7076254913263,41.939928244719816],[-87.70762914745,41.939887056419536],[-87.7076310350699,41.93986579724796],[-87.70763251470281,41.93984914285508],[-87.70763761394922,41.939818963583086],[-87.70764140120096,41.939796555134784],[-87.70764311887905,41.93978638803529],[-87.70764726073087,41.93976187474063],[-87.70766012952828,41.9397211985127],[-87.70768504585887,41.93964243813586],[-87.70769631441904,41.939606819355056],[-87.70770855107541,41.939568137514186],[-87.70771166755767,41.9395124473103],[-87.70770774863395,41.9394613581849],[-87.70770665123213,41.93944705402141],[-87.70770534088317,41.93942998557644],[-87.70770260375876,41.939394312984604],[-87.70770098218522,41.93937318504397],[-87.70769847188372,41.93934046137701],[-87.70769774565987,41.9393309922218],[-87.7076858498337,41.93933111016798],[-87.70760464126312,41.93933191728454],[-87.70758800109522,41.93933208229153],[-87.70749074810945,41.9393330485757],[-87.707260007128,41.93933534062463],[-87.7071506134862,41.9393364276881],[-87.70707802286891,41.93933714908347],[-87.70685446229326,41.939339369641495],[-87.70679102992206,41.93933999947364],[-87.70673022780267,41.9393406031103],[-87.70670539498246,41.93934088983953],[-87.70669915753005,41.93934096203663],[-87.70667340453222,41.9393412590425],[-87.7066059816878,41.93934203805574],[-87.70658650863797,41.93934211002551],[-87.7064890023185,41.93934246815425],[-87.70644049456168,41.93934264627664],[-87.70641433473554,41.93934274292994],[-87.70618964100838,41.93934356859336],[-87.70616599792193,41.93934365552825],[-87.70595113236911,41.93934444437631],[-87.70574613279739,41.93934626001008],[-87.70574332036225,41.93934629595614],[-87.70574050914175,41.93934633100846],[-87.70561719288861,41.93934787170404],[-87.70559949943994,41.93934809278728],[-87.70546720187328,41.93934975708166],[-87.70542200765922,41.939349952893615],[-87.70517524534708,41.93935102141469],[-87.7051010017596,41.939351342672474],[-87.70488100239558,41.93935229499867],[-87.70483699480548,41.939352485371096],[-87.70480812270287,41.93935261002744],[-87.704718133429,41.9393529996987],[-87.70469998434886,41.93935307859717],[-87.70463600445487,41.939353465652644],[-87.70438111593405,41.93935500926242],[-87.704121001951,41.93935622836075],[-87.70394966801719,41.93935703143452],[-87.70370400219274,41.93935818203308],[-87.70356052508332,41.93935885367975],[-87.70326955396443,41.93936082443219],[-87.70297001096506,41.93936223959841],[-87.70272492505752,41.939363397588025],[-87.70248001522128,41.93936455332085],[-87.70239636391081,41.939364948085505],[-87.7019990568432,41.93936729278548],[-87.70174600160762,41.939367566654575],[-87.70155819174725,41.939367769539146],[-87.70150238239174,41.93936782976972],[-87.7013451669226,41.9393679998884],[-87.7012560005009,41.93936809606601],[-87.70123208306623,41.93936812195284],[-87.70120205272379,41.939368306850724],[-87.70083473873518,41.93937057135843],[-87.70072939248475,41.939371226233725],[-87.70052101357851,41.939373680163875],[-87.70037395897688,41.939375411210555],[-87.70027737822504,41.93937654795371],[-87.70020985744587,41.9393773424778],[-87.6998860454186,41.93938115470699],[-87.69982927016424,41.939381822822085],[-87.69951128128609,41.939384046425374],[-87.69900804050866,41.93938692045035],[-87.69874306123889,41.93938820132132],[-87.69871301195211,41.93938834945012],[-87.69832278601591,41.93939027670248],[-87.69822200668816,41.93939077446854],[-87.69792300310142,41.939392249675755],[-87.69787379163013,41.93939249231054],[-87.69782343453083,41.93939274028747],[-87.69782756866964,41.93952167458172],[-87.69782886129165,41.93956200222762],[-87.69783043035117,41.939610923276376],[-87.69783784120241,41.939801155931676],[-87.6978388935365,41.93982815732508],[-87.69783892431866,41.93982894348568],[-87.69783903662503,41.93983281373624],[-87.69784520724849,41.94003646887793],[-87.69784628468311,41.94007199475653],[-87.69785144588585,41.94024226447873],[-87.69786134972934,41.94056897698763],[-87.69787054122146,41.94087222377523],[-87.69787569980582,41.94106341447966],[-87.69788592878676,41.94143986759359],[-87.69788804910259,41.94151780758319],[-87.69788892451025,41.94155000110512],[-87.69789158379562,41.94164774598229],[-87.69789807338344,41.941847602521044],[-87.6978990616254,41.941878027512864],[-87.69790305609963,41.942001013382466],[-87.69790497150014,41.94206000023903],[-87.69790959943437,41.9422025070097],[-87.697910572472,41.94223191363983],[-87.69791579066055,41.942389669896045],[-87.69791989661391,41.94260697965797],[-87.69792335971756,41.942790292018344],[-87.69792930253487,41.943110457751615],[-87.69793138002755,41.94318895388624],[-87.69793375998292,41.94327524676755],[-87.69793590514327,41.943353001400865],[-87.69794067790205,41.943525995978895],[-87.69794785294735,41.94377696628294],[-87.69795381340963,41.943976339040226],[-87.69796028596379,41.944190698846285],[-87.69796126734308,41.94422388510497],[-87.6979734408144,41.944635471608734],[-87.69797889762532,41.94483153282926],[-87.69798091350647,41.94490397566899],[-87.6979810433382,41.94490863290291],[-87.6979812868195,41.94491739087621],[-87.69798284141662,41.94497325425547],[-87.69798478865067,41.94504398788402],[-87.6979931286553,41.9453468524783],[-87.69799421531071,41.94538632182663],[-87.69800074563555,41.945608003394675],[-87.6980055694958,41.94577174817957],[-87.69800707948247,41.945822998004665],[-87.69800961148032,41.94590893335482],[-87.69801994067787,41.94626071671595],[-87.69802554956576,41.94646699118067],[-87.6980314121178,41.94668258096985],[-87.69827599051493,41.94668046507675],[-87.69835944119608,41.94667974269685],[-87.69864665649952,41.946678010365034],[-87.6990099967831,41.94667656917174],[-87.69925589043415,41.94667559377547],[-87.69935237466159,41.94667521005198],[-87.69948498136745,41.94667468354902],[-87.69950000652952,41.94667460803936],[-87.69979219272828,41.94667314067215],[-87.70023401117145,41.94666976705418],[-87.7002804277899,41.94666941257013],[-87.70047949363227,41.94666414826196],[-87.70072503052457,41.94665765502282],[-87.70081917779282,41.94665516572006],[-87.70087898594919,41.946653583789484],[-87.70101529494197,41.94665306690975],[-87.70124795044488,41.94665218540114],[-87.70146301008617,41.94665084014892],[-87.70170952668721,41.946649297517226],[-87.70175702812894,41.94664899972302],[-87.70183099456429,41.946648536862696],[-87.7019665988906,41.94664768815723],[-87.70219700367836,41.94664976974455],[-87.70231897665458,41.94665086513282],[-87.7023338742461,41.9466510064313],[-87.70243998478722,41.94665196499332],[-87.70250183647991,41.94665252363072],[-87.702803998649,41.94665325430166],[-87.70286883434152,41.94665341137502],[-87.70292584084325,41.946653548832565],[-87.70307668918214,41.94665391333215],[-87.70316999919197,41.94665413830713],[-87.70342998237345,41.94665476546623],[-87.70354339188867,41.94665398759917],[-87.70390500318531,41.94665235936936],[-87.7041503323618,41.946651253351796],[-87.70439300096704,41.946650159245415],[-87.70450780928141,41.94664964198165],[-87.704918358175,41.94664736204132],[-87.70512500441012,41.9466466553334],[-87.70531644000236,41.94664600010328],[-87.70536891021251,41.946645820727355],[-87.70537776307222,41.94685600562706],[-87.70538091744325,41.94693090165065],[-87.70538425013132,41.94700999419325],[-87.7053851099201,41.94703040400864],[-87.70538657104844,41.94706487038706],[-87.70538777122239,41.947093607429146],[-87.70538863203352,41.94711403615678],[-87.7053946870948,41.947328639868665],[-87.70539817528697,41.947477300064634],[-87.70540305865866,41.94768546088537],[-87.70540523378497,41.947766011025024],[-87.70541155873939,41.948000190291786],[-87.70541246808648,41.94803386315548],[-87.70541429337361,41.94810299517568],[-87.70542215350895,41.948400603960614],[-87.70542392343899,41.94846763610102],[-87.70543354659146,41.94883200686557],[-87.70543471347645,41.94887618439659],[-87.70544308897435,41.94919884047088],[-87.70545301005522,41.949536433369154],[-87.70545702206121,41.949672292763346],[-87.7054611496547,41.94981210614003],[-87.70546453774064,41.94992699160489],[-87.70546705904025,41.95001246661556],[-87.70546779754764,41.9500374980561],[-87.70547140114755,41.95019715905599],[-87.70547344293693,41.95028762287531],[-87.7054735479941,41.950292279961666],[-87.70522800445592,41.950293529867324],[-87.70517994966454,41.95029377474763],[-87.70516599951611,41.950293846077294],[-87.70508231915393,41.95029427143097],[-87.70493101929598,41.95029504150128],[-87.70485764727407,41.950295463690026],[-87.70472525515571,41.95029622084563],[-87.70455200287564,41.95029730418123],[-87.70449200787213,41.95029767965272],[-87.70424693431325,41.950299210937345],[-87.70400201875391,41.95030074076419],[-87.70394201168737,41.95030111588213],[-87.70388995313924,41.95030144091163],[-87.70367098713524,41.950301777104784],[-87.70363764947444,41.95030183555407],[-87.70352607638536,41.95030199964973],[-87.7035185479564,41.95030201147114],[-87.70333200103806,41.9503023654944],[-87.70327100150456,41.950302481822625],[-87.7030521094914,41.950302897370854],[-87.7030270769654,41.95030294451452],[-87.70299788219344,41.950303000312886],[-87.7027820006022,41.950303409365546],[-87.70275535672491,41.95030346020492],[-87.70272360986188,41.95030351992328],[-87.70244906782656,41.950304482159865],[-87.70241950989438,41.95030467356622],[-87.70222980880693,41.95030591149742],[-87.70211198286543,41.95030698789582],[-87.70204699375131,41.95030758132294],[-87.70180340879442,41.95030980612989],[-87.70176530428184,41.95031015383099],[-87.7015584523998,41.95031204268061],[-87.70149800079903,41.95031224211164],[-87.70119394927423,41.95031324782138],[-87.70114715449786,41.95031340161564],[-87.70107783427781,41.95031375906783],[-87.70098249288488,41.950314251365405],[-87.7008879966541,41.95031477344874],[-87.70084697583565,41.95031500034194],[-87.70082500117658,41.95031512147213],[-87.70058134163799,41.95031646635282],[-87.7003656066351,41.95031765765811],[-87.70033600592218,41.950317783468314],[-87.70027600120578,41.95031803963989],[-87.70013267738902,41.950318650192465],[-87.69997124209156,41.95031924708638],[-87.69984489989996,41.95031972497536],[-87.69966500350702,41.95032041494702],[-87.69960200425379,41.950320656039416],[-87.6994516493545,41.95032123233357],[-87.6993580267106,41.9503215914194],[-87.69936172791708,41.950444060454785],[-87.6993670274886,41.950628939342415],[-87.69936866086057,41.95068598972064],[-87.69937672244087,41.95096762889464],[-87.69938407806096,41.9512232662064],[-87.69939256905093,41.95152012691424],[-87.69939599214997,41.951644747078376],[-87.69939989067379,41.951786630103534],[-87.69940330600645,41.95190948016889],[-87.69941076082176,41.952146846676534],[-87.69941263668116,41.95220657506097],[-87.69941778237762,41.95237036819967],[-87.69942176286733,41.952513967689],[-87.69942681179784,41.95269824190294],[-87.6994279472187,41.95273945899968],[-87.69942980718187,41.95280700215858],[-87.69943189393523,41.952882818805186],[-87.69943908958791,41.953143558219125],[-87.69944277026062,41.95327664557615],[-87.69944790715263,41.95346726757986],[-87.69945051030072,41.95356400714501],[-87.69945179051837,41.95360400328656],[-87.69945544198785,41.95371800977058],[-87.69945977319408,41.9538532506944],[-87.69946159232074,41.953910069780086],[-87.69946343071162,41.95396750119618],[-87.69921799616976,41.95396861278291],[-87.69916199124121,41.95396886615005],[-87.69913129593829,41.95396900540839],[-87.69885971880895,41.953972370295936],[-87.69854998186206,41.953972194140064],[-87.69848498531731,41.953972550518024],[-87.69824054595578,41.95397389060046],[-87.6975115484977,41.95397788303486],[-87.69748200121613,41.95397804441593],[-87.69720700495442,41.95397954978351],[-87.69693690227759,41.95398102759805],[-87.6968773855317,41.95398135311837],[-87.69596125196999,41.95398635900816],[-87.69593899380325,41.953986480328396],[-87.69576455069218,41.95398743303617],[-87.69553600549716,41.953988680959114],[-87.6953875127617,41.95398949094707],[-87.69530155832119,41.953989960451885],[-87.69520500127915,41.95399024851713],[-87.69514769571124,41.95399041976995],[-87.69494899339155,41.953991013105686],[-87.69454306469473,41.95399222334505],[-87.69455115803929,41.95394353260088],[-87.6945546869739,41.95392229723957],[-87.69456973694275,41.95385830357154],[-87.69458438230382,41.9538090991752],[-87.6945938600768,41.953786154769624],[-87.69460679867416,41.95375483313716],[-87.69462557018647,41.95371939973263],[-87.6946471610673,41.9536814853932],[-87.69479298827451,41.95347650804615],[-87.69488639052447,41.95336358136604],[-87.69507261699052,41.9531070728097],[-87.69514007954272,41.95302507210673],[-87.6953977920988,41.9527118199814],[-87.69546135813245,41.952652431739146],[-87.69549659203417,41.95261412575851],[-87.69552458476763,41.95256452901068],[-87.69565786947942,41.952352126040246],[-87.69575324684023,41.95221775022124],[-87.69577591818364,41.952182037564334],[-87.69579005036165,41.95215829599702],[-87.6958072711005,41.95212356773863],[-87.69582215518153,41.95209166434443],[-87.6958387868303,41.952056015373],[-87.6958828020417,41.951977500648],[-87.69591705693709,41.9519044750523],[-87.69594738162625,41.95186795313696],[-87.69597106344709,41.95183405661362],[-87.69599223194385,41.95178669969604],[-87.69601958817414,41.95173457385874],[-87.69604775981301,41.951689094279295],[-87.69606345967681,41.95165542713006],[-87.69607476839897,41.951631176472084],[-87.69609716301909,41.95159354000582],[-87.69611828476582,41.9515583669775],[-87.69615414239331,41.95148664037422],[-87.69617618679396,41.95143632349187],[-87.69619874130998,41.95137898505599],[-87.69621241626876,41.95134577391886],[-87.69623185112656,41.95131017915541],[-87.69624983022572,41.951269253555594],[-87.6962739205347,41.951227483139796],[-87.69629594134061,41.95120156236127],[-87.69640239847249,41.95102477344764],[-87.69643586843453,41.95099353217894],[-87.69646752174657,41.950945353705464],[-87.69649790504502,41.9509029870157],[-87.69650603374525,41.9508922344375],[-87.69653765266185,41.95085040938687],[-87.6965714237816,41.95079252896134],[-87.6966003575948,41.95074430835652],[-87.69662955034197,41.950684728806394],[-87.69666041035681,41.95063127804209],[-87.69667371672274,41.950603069739955],[-87.69670355988906,41.950539806021276],[-87.69674111100768,41.95048260554453],[-87.69675652574729,41.95045522372162],[-87.69675989475849,41.950449239895825],[-87.69676809262928,41.95043467658132],[-87.69678764415616,41.9503909325698],[-87.69680902297748,41.950319173187665],[-87.69682770231411,41.950273866760526],[-87.69683994686491,41.95024023525995],[-87.69686355923712,41.95000625763125],[-87.69685913987473,41.94996507000449],[-87.696849682531,41.94992305855566],[-87.69685041180018,41.94987193730927],[-87.69684572277127,41.949825973731386],[-87.69683694940541,41.949750733057996],[-87.69682815486222,41.94969253462951],[-87.69681463187776,41.94965137845892],[-87.69680070722677,41.94960259155558],[-87.69679079461977,41.9495570104642],[-87.69678556327237,41.9495174371247],[-87.69677558875742,41.949459533758734],[-87.69675479105524,41.949362603157745],[-87.69675308667257,41.94932335098174],[-87.69674994754801,41.94928417368088],[-87.69673301755603,41.949197444560475],[-87.69671269292841,41.94910098294219],[-87.69670858565368,41.94904456613416],[-87.69669809083524,41.94899096885615],[-87.69668886587077,41.94894283912589],[-87.69668220670805,41.948906413520525],[-87.69666084325091,41.94882564610079],[-87.69663987038068,41.948746355584305],[-87.69661614656279,41.948622103479046],[-87.6966019656123,41.948517909647144],[-87.69660091336804,41.94851299880773],[-87.69657484651111,41.948391278030655],[-87.69653198127034,41.94821801735302],[-87.69646815530383,41.947960558458696],[-87.69646617569734,41.9479488566774],[-87.69640741761617,41.94782264552202],[-87.6963716881948,41.94773623249008],[-87.6963534604449,41.9476692268507],[-87.69633893501617,41.94761072196862],[-87.69633162194809,41.947566115898766],[-87.69631992179293,41.947485974622296],[-87.69632005620065,41.947454060425805],[-87.69631706243528,41.94742248540426],[-87.69631060742591,41.947384002743725],[-87.69630204854951,41.94734279210992],[-87.69628909752866,41.94728860403911],[-87.69627704709961,41.94725843279884],[-87.69626670260155,41.947226625217354],[-87.69625446414541,41.947178396787],[-87.69625516994581,41.947155596211935],[-87.69624187284052,41.94710662003237],[-87.69623304711443,41.94706266370098],[-87.69622117883007,41.94701783967195],[-87.6962180985205,41.94699496316652],[-87.69621248010597,41.94694259933006],[-87.6962129502619,41.946887992341885],[-87.69621566625149,41.94682936343102],[-87.69620447368311,41.94669597034935]]]]},"properties":{"ward_id":"35","st_area_sh":"76131371.9188","st_length_":"70987.9795948","edit_date":"2022-06-01T00:00:00.000","objectid":"85","globalid":"{3FDB81BF-D813-4AA7-9F92-DD74FD23B646}","ward":"35"}}], "crs" : { "type": "name", "properties": { "name": "urn:ogc:def:crs:OGC:1.3:CRS84" } } }