{"type":"FeatureCollection","features":[{"type":"Feature","id":1,"properties":{"sid":1,"lb_mm":0,"exact":0,"gw_mm":101961,"detail_id":1},"geometry":{"type":"LineString","coordinates":[[-87.70379571838453,41.93387155457675],[-87.70256636442718,41.93387879873833]]}},{"type":"Feature","id":2,"properties":{"sid":2,"lb_mm":0,"exact":0,"gw_mm":102738,"detail_id":2},"geometry":{"type":"LineString","coordinates":[[-87.70384620026657,41.935697346385005],[-87.70260744515058,41.9357041675574]]}},{"type":"Feature","id":3,"properties":{"sid":3,"lb_mm":0,"exact":0,"gw_mm":101701,"detail_id":3},"geometry":{"type":"LineString","coordinates":[[-87.70502193675942,41.93386483739877],[-87.70379571838453,41.93387155457675]]}},{"type":"Feature","id":4,"properties":{"sid":4,"lb_mm":0,"exact":0,"gw_mm":101495,"detail_id":4},"geometry":{"type":"LineString","coordinates":[[-87.70506996382245,41.93568975096432],[-87.70384620026657,41.935697346385005]]}},{"type":"Feature","id":5,"properties":{"sid":5,"lb_mm":0,"exact":0,"gw_mm":7608,"detail_id":5},"geometry":{"type":"LineString","coordinates":[[-87.70511366492573,41.93386474870102],[-87.70502193675942,41.93386483739877]]}},{"type":"Feature","id":6,"properties":{"sid":6,"lb_mm":0,"exact":0,"gw_mm":93756,"detail_id":6},"geometry":{"type":"LineString","coordinates":[[-87.70624407082327,41.933857152071326],[-87.70511366492573,41.93386474870102]]}},{"type":"Feature","id":7,"properties":{"sid":7,"lb_mm":0,"exact":0,"gw_mm":101493,"detail_id":7},"geometry":{"type":"LineString","coordinates":[[-87.7062937067989,41.93568275281229],[-87.70506996382245,41.93568975096432]]}},{"type":"Feature","id":8,"properties":{"sid":8,"lb_mm":0,"exact":0,"gw_mm":91712,"detail_id":8},"geometry":{"type":"LineString","coordinates":[[-87.70734982673893,41.93384909390612],[-87.70624407082327,41.933857152071326]]}},{"type":"Feature","id":9,"properties":{"sid":9,"lb_mm":0,"exact":0,"gw_mm":93704,"detail_id":9},"geometry":{"type":"LineString","coordinates":[[-87.70742356741135,41.93568178519546],[-87.7062937067989,41.93568275281229]]}},{"type":"Feature","id":10,"properties":{"sid":10,"lb_mm":0,"exact":0,"gw_mm":10194,"detail_id":10},"geometry":{"type":"LineString","coordinates":[[-87.70747006398246,41.933868119777436],[-87.70734982673893,41.93384909390612]]}},{"type":"Feature","id":11,"properties":{"sid":11,"lb_mm":0,"exact":0,"gw_mm":8305,"detail_id":11},"geometry":{"type":"LineString","coordinates":[[-87.70752300428913,41.93569059227711],[-87.70742356741135,41.93568178519546]]}},{"type":"Feature","id":12,"properties":{"sid":12,"lb_mm":0,"exact":0,"gw_mm":14031,"detail_id":12},"geometry":{"type":"LineString","coordinates":[[-87.7076910062659,41.93570547111507],[-87.70752300428913,41.93569059227711]]}},{"type":"Feature","id":13,"properties":{"sid":13,"lb_mm":0,"exact":0,"gw_mm":15528,"detail_id":13},"geometry":{"type":"LineString","coordinates":[[-87.70787816040547,41.93570155334127],[-87.7076910062659,41.93570547111507]]}},{"type":"Feature","id":14,"properties":{"sid":14,"lb_mm":0,"exact":0,"gw_mm":70851,"detail_id":14},"geometry":{"type":"LineString","coordinates":[[-87.70873230370705,41.935689310961315],[-87.70787816040547,41.93570155334127]]}},{"type":"Feature","id":15,"properties":{"sid":15,"lb_mm":0,"exact":0,"gw_mm":100839,"detail_id":15},"geometry":{"type":"LineString","coordinates":[[-87.70994801717563,41.93567362298975],[-87.70873230370705,41.935689310961315]]}},{"type":"Feature","id":16,"properties":{"sid":16,"lb_mm":0,"exact":0,"gw_mm":100695,"detail_id":16},"geometry":{"type":"LineString","coordinates":[[-87.71116199760355,41.93565815674328],[-87.70994801717563,41.93567362298975]]}},{"type":"Feature","id":17,"properties":{"sid":17,"lb_mm":0,"exact":0,"gw_mm":73440,"detail_id":17},"geometry":{"type":"LineString","coordinates":[[-87.71204739514594,41.93564716646376],[-87.71116199760355,41.93565815674328]]}},{"type":"Feature","id":18,"properties":{"sid":18,"lb_mm":0,"exact":0,"gw_mm":26951,"detail_id":18},"geometry":{"type":"LineString","coordinates":[[-87.71237234109508,41.935644523480676],[-87.71204739514594,41.93564716646376]]}},{"type":"Feature","id":19,"properties":{"sid":19,"lb_mm":0,"exact":0,"gw_mm":114406,"detail_id":19},"geometry":{"type":"LineString","coordinates":[[-87.71777754205434,41.952748782990824],[-87.71780754702101,41.95377854859952]]}},{"type":"Feature","id":20,"properties":{"sid":20,"lb_mm":0,"exact":0,"gw_mm":892,"detail_id":20},"geometry":{"type":"LineString","coordinates":[[-87.71780754702101,41.95377854859952],[-87.71780778291028,41.95378657880914]]}},{"type":"Feature","id":21,"properties":{"sid":21,"lb_mm":0,"exact":0,"gw_mm":101012,"detail_id":21},"geometry":{"type":"LineString","coordinates":[[-87.72171534644683,41.919052350284225],[-87.72174423115418,41.91996152387927]]}},{"type":"Feature","id":22,"properties":{"sid":22,"lb_mm":0,"exact":0,"gw_mm":101610,"detail_id":22},"geometry":{"type":"LineString","coordinates":[[-87.72174423115418,41.91996152387927],[-87.72177138716508,41.9208761127137]]}},{"type":"Feature","id":23,"properties":{"sid":23,"lb_mm":0,"exact":0,"gw_mm":101574,"detail_id":23},"geometry":{"type":"LineString","coordinates":[[-87.72177138716508,41.9208761127137],[-87.72179731706514,41.92179039595663]]}},{"type":"Feature","id":24,"properties":{"sid":24,"lb_mm":0,"exact":0,"gw_mm":101699,"detail_id":24},"geometry":{"type":"LineString","coordinates":[[-87.72179731706514,41.92179039595663],[-87.72182229269752,41.922705820995624]]}},{"type":"Feature","id":25,"properties":{"sid":25,"lb_mm":0,"exact":0,"gw_mm":186282,"detail_id":25},"geometry":{"type":"LineString","coordinates":[[-87.72182229269752,41.922705820995624],[-87.72187268670051,41.924382525675426]]}},{"type":"Feature","id":26,"properties":{"sid":26,"lb_mm":0,"exact":0,"gw_mm":16874,"detail_id":26},"geometry":{"type":"LineString","coordinates":[[-87.72187268670051,41.924382525675426],[-87.72187579223747,41.92453442337731]]}},{"type":"Feature","id":27,"properties":{"sid":27,"lb_mm":0,"exact":0,"gw_mm":202918,"detail_id":27},"geometry":{"type":"LineString","coordinates":[[-87.72187579223747,41.92453442337731],[-87.72192802075112,41.9263609125087]]}},{"type":"Feature","id":28,"properties":{"sid":28,"lb_mm":0,"exact":0,"gw_mm":203099,"detail_id":28},"geometry":{"type":"LineString","coordinates":[[-87.72192802075112,41.9263609125087],[-87.7219824801546,41.92818899300935]]}},{"type":"Feature","id":29,"properties":{"sid":29,"lb_mm":0,"exact":0,"gw_mm":205749,"detail_id":29},"geometry":{"type":"LineString","coordinates":[[-87.7219824801546,41.92818899300935],[-87.72203390565075,41.93004098854818]]}},{"type":"Feature","id":30,"properties":{"sid":30,"lb_mm":0,"exact":0,"gw_mm":200228,"detail_id":30},"geometry":{"type":"LineString","coordinates":[[-87.72203390565075,41.93004098854818],[-87.72208189386546,41.93184331985075]]}},{"type":"Feature","id":31,"properties":{"sid":31,"lb_mm":0,"exact":0,"gw_mm":88283,"detail_id":31},"geometry":{"type":"LineString","coordinates":[[-87.72293801876592,41.919039063841325],[-87.72296032337512,41.91983372130595]]}},{"type":"Feature","id":32,"properties":{"sid":32,"lb_mm":0,"exact":0,"gw_mm":114208,"detail_id":32},"geometry":{"type":"LineString","coordinates":[[-87.72296032337512,41.91983372130595],[-87.72299270195381,41.92086167553967]]}},{"type":"Feature","id":33,"properties":{"sid":33,"lb_mm":0,"exact":0,"gw_mm":203228,"detail_id":33},"geometry":{"type":"LineString","coordinates":[[-87.72299270195381,41.92086167553967],[-87.72304697524176,41.922690929453964]]}},{"type":"Feature","id":34,"properties":{"sid":34,"lb_mm":0,"exact":0,"gw_mm":152753,"detail_id":34},"geometry":{"type":"LineString","coordinates":[[-87.72304697524176,41.922690929453964],[-87.72308370930726,41.92406592078638]]}},{"type":"Feature","id":35,"properties":{"sid":35,"lb_mm":0,"exact":0,"gw_mm":50519,"detail_id":35},"geometry":{"type":"LineString","coordinates":[[-87.72308370930726,41.92406592078638],[-87.72309807008777,41.92452062324661]]}},{"type":"Feature","id":36,"properties":{"sid":36,"lb_mm":0,"exact":0,"gw_mm":204231,"detail_id":36},"geometry":{"type":"LineString","coordinates":[[-87.72309807008777,41.92452062324661],[-87.72315302545937,41.926358895542215]]}},{"type":"Feature","id":37,"properties":{"sid":37,"lb_mm":0,"exact":0,"gw_mm":202604,"detail_id":37},"geometry":{"type":"LineString","coordinates":[[-87.72315302545937,41.926358895542215],[-87.72320423777514,41.92818257542417]]}},{"type":"Feature","id":38,"properties":{"sid":38,"lb_mm":0,"exact":0,"gw_mm":206095,"detail_id":38},"geometry":{"type":"LineString","coordinates":[[-87.72320423777514,41.92818257542417],[-87.72325661549165,41.93003767627502]]}},{"type":"Feature","id":39,"properties":{"sid":39,"lb_mm":0,"exact":0,"gw_mm":190388,"detail_id":39},"geometry":{"type":"LineString","coordinates":[[-87.72325661549165,41.93003767627502],[-87.72330566704893,41.93175138476433]]}},{"type":"Feature","id":40,"properties":{"sid":40,"lb_mm":0,"exact":0,"gw_mm":8839,"detail_id":40},"geometry":{"type":"LineString","coordinates":[[-87.72330566704893,41.93175138476433],[-87.72329426900114,41.93183050499742]]}}]}